{"type": "FeatureCollection", "features": [ {"type": "Feature", "properties": {"norad_id": 66623, "name": "STARLINK-35920", "group": "last-30-days", "lat": -45.29552384849, "lon": 102.79763289773196, "alt_km": 452.48125433159294, "timestamp": "2025-12-20T03:42:46.118834+00:00", "meta": {"OBJECT_NAME": "STARLINK-35920", "OBJECT_ID": "2025-271G", "EPOCH": "2025-12-19T20:00:01.999008", "MEAN_MOTION": 15.39588577, "ECCENTRICITY": 0.0001104, "INCLINATION": 53.1605, "RA_OF_ASC_NODE": 153.5544, "ARG_OF_PERICENTER": 85.9143, "MEAN_ANOMALY": 229.4047, "EPHEMERIS_TYPE": 0, "CLASSIFICATION_TYPE": "U", "NORAD_CAT_ID": 66623, "ELEMENT_SET_NO": 999, "REV_AT_EPOCH": 538, "BSTAR": 0.0011171, "MEAN_MOTION_DOT": 0.000445, "MEAN_MOTION_DDOT": 0}, "tle": {"line1": "1 66623U 25271G   25353.83335647  .00044500  00000+0  11171-2 0  9992", "line2": "2 66623  53.1605 153.5544 0001104  85.9143 229.4047 15.39588577  5380"}}, "geometry": {"type": "Point", "coordinates": [102.79763289773196, -45.29552384849]}}, {"type": "Feature", "properties": {"norad_id": 66624, "name": "STARLINK-35927", "group": "last-30-days", "lat": 52.165599733701484, "lon": -133.37236359330188, "alt_km": 410.5677910928189, "timestamp": "2025-12-20T03:42:46.118847+00:00", "meta": {"OBJECT_NAME": "STARLINK-35927", "OBJECT_ID": "2025-271H", "EPOCH": "2025-12-19T04:08:38.001120", "MEAN_MOTION": 15.49319898, "ECCENTRICITY": 0.00011872, "INCLINATION": 53.1596, "RA_OF_ASC_NODE": 156.4518, "ARG_OF_PERICENTER": 87.9629, "MEAN_ANOMALY": 272.1516, "EPHEMERIS_TYPE": 0, "CLASSIFICATION_TYPE": "U", "NORAD_CAT_ID": 66624, "ELEMENT_SET_NO": 999, "REV_AT_EPOCH": 520, "BSTAR": 0.0010655885, "MEAN_MOTION_DOT": 0.00059289, "MEAN_MOTION_DDOT": 0}, "tle": {"line1": "1 66624U 25271H   25353.17266205  .00059289  00000+0  10656-2 0  9990", "line2": "2 66624  53.1596 156.4518 0001187  87.9629 272.1516 15.49319898  5201"}}, "geometry": {"type": "Point", "coordinates": [-133.37236359330188, 52.165599733701484]}}, {"type": "Feature", "properties": {"norad_id": 66625, "name": "STARLINK-35929", "group": "last-30-days", "lat": 31.1945039825287, "lon": 178.83311669353498, "alt_km": 442.96996115802085, "timestamp": "2025-12-20T03:42:46.118857+00:00", "meta": {"OBJECT_NAME": "STARLINK-35929", "OBJECT_ID": "2025-271J", "EPOCH": "2025-12-19T20:00:01.999008", "MEAN_MOTION": 15.3958274, "ECCENTRICITY": 0.0001045, "INCLINATION": 53.1596, "RA_OF_ASC_NODE": 153.3501, "ARG_OF_PERICENTER": 89.706, "MEAN_ANOMALY": 328.6483, "EPHEMERIS_TYPE": 0, "CLASSIFICATION_TYPE": "U", "NORAD_CAT_ID": 66625, "ELEMENT_SET_NO": 999, "REV_AT_EPOCH": 538, "BSTAR": 0.0010787, "MEAN_MOTION_DOT": 0.00042936, "MEAN_MOTION_DDOT": 0}, "tle": {"line1": "1 66625U 25271J   25353.83335647  .00042936  00000+0  10787-2 0  9997", "line2": "2 66625  53.1596 153.3501 0001045  89.7060 328.6483 15.39582740  5388"}}, "geometry": {"type": "Point", "coordinates": [178.83311669353498, 31.1945039825287]}}, {"type": "Feature", "properties": {"norad_id": 66626, "name": "STARLINK-35902", "group": "last-30-days", "lat": -28.741402233445566, "lon": 127.71157485143686, "alt_km": 451.370530483975, "timestamp": "2025-12-20T03:42:46.118868+00:00", "meta": {"OBJECT_NAME": "STARLINK-35902", "OBJECT_ID": "2025-271K", "EPOCH": "2025-12-19T20:00:01.999008", "MEAN_MOTION": 15.39593576, "ECCENTRICITY": 0.0001607, "INCLINATION": 53.1603, "RA_OF_ASC_NODE": 153.5037, "ARG_OF_PERICENTER": 73.1731, "MEAN_ANOMALY": 267.9055, "EPHEMERIS_TYPE": 0, "CLASSIFICATION_TYPE": "U", "NORAD_CAT_ID": 66626, "ELEMENT_SET_NO": 999, "REV_AT_EPOCH": 538, "BSTAR": 0.0011426, "MEAN_MOTION_DOT": 0.00045538, "MEAN_MOTION_DDOT": 0}, "tle": {"line1": "1 66626U 25271K   25353.83335647  .00045538  00000+0  11426-2 0  9990", "line2": "2 66626  53.1603 153.5037 0001607  73.1731 267.9055 15.39593576  5389"}}, "geometry": {"type": "Point", "coordinates": [127.71157485143686, -28.741402233445566]}}, {"type": "Feature", "properties": {"norad_id": 66627, "name": "STARLINK-35904", "group": "last-30-days", "lat": 11.602820567381126, "lon": 160.74211795943762, "alt_km": 446.15323108034045, "timestamp": "2025-12-20T03:42:46.118878+00:00", "meta": {"OBJECT_NAME": "STARLINK-35904", "OBJECT_ID": "2025-271L", "EPOCH": "2025-12-19T20:00:01.999008", "MEAN_MOTION": 15.39590764, "ECCENTRICITY": 0.0001035, "INCLINATION": 53.1595, "RA_OF_ASC_NODE": 153.4016, "ARG_OF_PERICENTER": 73.9991, "MEAN_ANOMALY": 318.5866, "EPHEMERIS_TYPE": 0, "CLASSIFICATION_TYPE": "U", "NORAD_CAT_ID": 66627, "ELEMENT_SET_NO": 999, "REV_AT_EPOCH": 522, "BSTAR": 0.0010986, "MEAN_MOTION_DOT": 0.00043755, "MEAN_MOTION_DDOT": 0}, "tle": {"line1": "1 66627U 25271L   25353.83335647  .00043755  00000+0  10986-2 0  9990", "line2": "2 66627  53.1595 153.4016 0001035  73.9991 318.5866 15.39590764  5229"}}, "geometry": {"type": "Point", "coordinates": [160.74211795943762, 11.602820567381126]}}, {"type": "Feature", "properties": {"norad_id": 66628, "name": "STARLINK-35862", "group": "last-30-days", "lat": 53.13344971545147, "lon": -117.07242718934137, "alt_km": 410.41949560803096, "timestamp": "2025-12-20T03:42:46.118888+00:00", "meta": {"OBJECT_NAME": "STARLINK-35862", "OBJECT_ID": "2025-271M", "EPOCH": "2025-12-18T21:54:35.856864", "MEAN_MOTION": 15.49385884, "ECCENTRICITY": 9.597e-05, "INCLINATION": 53.1591, "RA_OF_ASC_NODE": 157.6722, "ARG_OF_PERICENTER": 75.8715, "MEAN_ANOMALY": 284.24, "EPHEMERIS_TYPE": 0, "CLASSIFICATION_TYPE": "U", "NORAD_CAT_ID": 66628, "ELEMENT_SET_NO": 999, "REV_AT_EPOCH": 516, "BSTAR": 0.00078885762, "MEAN_MOTION_DOT": 0.0004379, "MEAN_MOTION_DDOT": 0}, "tle": {"line1": "1 66628U 25271M   25352.91291501  .00043790  00000+0  78886-3 0  9992", "line2": "2 66628  53.1591 157.6722 0000959  75.8715 284.2400 15.49385884  5167"}}, "geometry": {"type": "Point", "coordinates": [-117.07242718934137, 53.13344971545147]}}, {"type": "Feature", "properties": {"norad_id": 66629, "name": "STARLINK-35956", "group": "last-30-days", "lat": 53.006775057611954, "lon": -112.65131447851635, "alt_km": 410.72248138953546, "timestamp": "2025-12-20T03:42:46.118902+00:00", "meta": {"OBJECT_NAME": "STARLINK-35956", "OBJECT_ID": "2025-271N", "EPOCH": "2025-12-18T16:00:00.999936", "MEAN_MOTION": 15.49463337, "ECCENTRICITY": 5.424e-05, "INCLINATION": 53.1591, "RA_OF_ASC_NODE": 158.846, "ARG_OF_PERICENTER": 63.7637, "MEAN_ANOMALY": 4.4961, "EPHEMERIS_TYPE": 0, "CLASSIFICATION_TYPE": "U", "NORAD_CAT_ID": 66629, "ELEMENT_SET_NO": 999, "REV_AT_EPOCH": 519, "BSTAR": 0.0002238515, "MEAN_MOTION_DOT": 0.00012088, "MEAN_MOTION_DDOT": 0}, "tle": {"line1": "1 66629U 25271N   25352.66667824  .00012088  00000+0  22385-3 0  9999", "line2": "2 66629  53.1591 158.8460 0000542  63.7637   4.4961 15.49463337  5194"}}, "geometry": {"type": "Point", "coordinates": [-112.65131447851635, 53.006775057611954]}}, {"type": "Feature", "properties": {"norad_id": 66630, "name": "STARLINK-35949", "group": "last-30-days", "lat": 52.944047549078434, "lon": -111.45404162693558, "alt_km": 411.1650996640865, "timestamp": "2025-12-20T03:42:46.118912+00:00", "meta": {"OBJECT_NAME": "STARLINK-35949", "OBJECT_ID": "2025-271P", "EPOCH": "2025-12-19T07:10:57.239904", "MEAN_MOTION": 15.4928529, "ECCENTRICITY": 3.52e-05, "INCLINATION": 53.1593, "RA_OF_ASC_NODE": 155.8154, "ARG_OF_PERICENTER": 144.7691, "MEAN_ANOMALY": 215.3341, "EPHEMERIS_TYPE": 0, "CLASSIFICATION_TYPE": "U", "NORAD_CAT_ID": 66630, "ELEMENT_SET_NO": 999, "REV_AT_EPOCH": 522, "BSTAR": 0.0013858, "MEAN_MOTION_DOT": 0.00077326, "MEAN_MOTION_DDOT": 0}, "tle": {"line1": "1 66630U 25271P   25353.29927361  .00077326  00000+0  13858-2 0  9996", "line2": "2 66630  53.1593 155.8154 0000352 144.7691 215.3341 15.49285290  5223"}}, "geometry": {"type": "Point", "coordinates": [-111.45404162693558, 52.944047549078434]}}, {"type": "Feature", "properties": {"norad_id": 66631, "name": "STARLINK-35965", "group": "last-30-days", "lat": 53.13150657318008, "lon": -119.64433661145539, "alt_km": 422.19086757793957, "timestamp": "2025-12-20T03:42:46.118923+00:00", "meta": {"OBJECT_NAME": "STARLINK-35965", "OBJECT_ID": "2025-271Q", "EPOCH": "2025-12-19T20:00:01.999008", "MEAN_MOTION": 15.46051813, "ECCENTRICITY": 8.91e-05, "INCLINATION": 53.1591, "RA_OF_ASC_NODE": 153.2665, "ARG_OF_PERICENTER": 54.1514, "MEAN_ANOMALY": 45.7753, "EPHEMERIS_TYPE": 0, "CLASSIFICATION_TYPE": "U", "NORAD_CAT_ID": 66631, "ELEMENT_SET_NO": 999, "REV_AT_EPOCH": 538, "BSTAR": -0.01669, "MEAN_MOTION_DOT": -0.00763247, "MEAN_MOTION_DDOT": 0}, "tle": {"line1": "1 66631U 25271Q   25353.83335647 -.00763247  00000+0 -16690-1 0  9999", "line2": "2 66631  53.1591 153.2665 0000891  54.1514  45.7753 15.46051813  5385"}}, "geometry": {"type": "Point", "coordinates": [-119.64433661145539, 53.13150657318008]}}, {"type": "Feature", "properties": {"norad_id": 66632, "name": "STARLINK-35973", "group": "last-30-days", "lat": -53.106514906159056, "lon": 64.93201240324612, "alt_km": 452.58031829934407, "timestamp": "2025-12-20T03:42:46.118933+00:00", "meta": {"OBJECT_NAME": "STARLINK-35973", "OBJECT_ID": "2025-271R", "EPOCH": "2025-12-19T18:44:52.278432", "MEAN_MOTION": 15.39637359, "ECCENTRICITY": 9.83e-05, "INCLINATION": 53.1599, "RA_OF_ASC_NODE": 153.8489, "ARG_OF_PERICENTER": 75.4861, "MEAN_ANOMALY": 284.6253, "EPHEMERIS_TYPE": 0, "CLASSIFICATION_TYPE": "U", "NORAD_CAT_ID": 66632, "ELEMENT_SET_NO": 999, "REV_AT_EPOCH": 525, "BSTAR": 0.00082132, "MEAN_MOTION_DOT": 0.00032612, "MEAN_MOTION_DDOT": 0}, "tle": {"line1": "1 66632U 25271R   25353.78116063  .00032612  00000+0  82132-3 0  9992", "line2": "2 66632  53.1599 153.8489 0000983  75.4861 284.6253 15.39637359  5259"}}, "geometry": {"type": "Point", "coordinates": [64.93201240324612, -53.106514906159056]}}]}